CUBEBEL-1 (BSUSAT-1)    
1 43666U 18083E   21264.58973446  .00001847  00000-0  89552-4 0  9999
2 43666  97.4506 291.7415 0014122 187.1879 271.9181 15.19703289160616
CICERO 10               
1 43690U 18088A   21264.14541921  .00001780  00000-0  76959-4 0  9995
2 43690  85.0370 134.5336 0016518  62.4683 297.8235 15.21571558158776
IRVINE01                
1 43693U 18088D   21264.35623412  .00004667  00000-0  17643-3 0  9998
2 43693  85.0325 131.1892 0017494  36.5360 323.7074 15.26535683159064
PROXIMA I               
1 43694U 18088E   21264.07297739  .00001745  00000-0  71525-4 0  9991
2 43694  85.0308 131.9512 0019814  33.8383 326.4119 15.23284655158938
PROXIMA II              
1 43696U 18088G   21264.13712606  .00001723  00000-0  70630-4 0  9997
2 43696  85.0309 131.9194 0019862  33.5205 326.7290 15.23280445158936
FACSAT-1                
1 43721U 18096C   21264.45202635  .00003236  00000-0  11557-3 0  9999
2 43721  97.3777 340.8650 0015059 293.5937 121.7652 15.29476951156794
CENTAURI-2              
1 43722U 18096D   21264.46776164  .00004067  00000-0  13901-3 0  9992
2 43722  97.3826 341.8881 0014510 290.3854  69.5828 15.30766640156840
INNOSAT-2               
1 43738U 18096V   21264.62115803  .00006062  00000-0  18195-3 0  9991
2 43738  97.3886 346.4330 0018807 287.7020 183.4279 15.34658888157149
SIRION PATHFINDER-2     
1 43759U 18099B   21264.53699201  .00000780  00000-0  75208-4 0  9996
2 43759  97.6565 332.9733 0015779  83.6032 276.6985 14.95601784152847
CORVUS BC4              
1 43767U 18099K   21264.45179087  .00000316  00000-0  33973-4 0  9999
2 43767  97.6533 331.7636 0013190  88.4762 271.7970 14.95019408152776
MOVE-II                 
1 43780U 18099Y   21264.45958342  .00000921  00000-0  86839-4 0  9994
2 43780  97.6591 333.1437 0014807  93.9755 266.3159 14.96097563152823
SPACEBEE-7              
1 43816U 18099BL  21264.45908719  .00000692  00000-0  66235-4 0  9990
2 43816  97.6606 333.7853 0014579  79.1925 281.0937 14.96270312152417
SPACEBEE-5              
1 43817U 18099BM  21264.44721919  .00001239  00000-0  11060-3 0  9998
2 43817  97.6710 335.3446 0013966  76.9119 283.3661 14.97691755152473
SPACEBEE-6              
1 43818U 18099BN  21264.19724963  .00001101  00000-0  10127-3 0  9994
2 43818  97.6636 334.0075 0014447  79.7382 280.5468 14.96698317152545
SHIELDS 1               
1 43850U 18104B   21264.31734717  .00000950  00000-0  39695-4 0  9992
2 43850  85.0290 230.4790 0015007 166.7438 193.4202 15.22045724153551
STF-1                   
1 43852U 18104D   21264.30961020  .00002369  00000-0  99403-4 0  9991
2 43852  85.0325 231.1355 0013767 179.2350 180.8916 15.22822463153544
ZACUBE-2                
1 43907U 18111AH  21264.57221363  .00001123  00000-0  47014-4 0  9996
2 43907  97.2191 155.4274 0019896 317.1209 159.6473 15.25407939152286
LUME 1                  
1 43908U 18111AJ  21264.43298983  .00002059  00000-0  80944-4 0  9992
2 43908  97.2199 156.0305 0018898 315.1565  44.8147 15.26622794152317
AOBA VELOX-IV           
1 43940U 19003J   21264.39658674  .00004535  00000-0  16679-3 0  9995
2 43940  97.1692 304.8790 0022754  32.4664 327.7970 15.28126282148951
UNITE                   
1 44031U 98067PX  21264.05390648  .00137929  18466-4  37526-3 0  9998
2 44031  51.6345 126.4581 0002738 219.8999 140.1808 15.93909345150839
RAAVANA-1               
1 44329U 98067QE  21264.39245199  .00381382  74762-4  64808-3 0  9993
2 44329  51.6268 143.7313 0005823 231.6738 128.3750 16.02023962129382
UGUISU                  
1 44330U 98067QF  21264.39984976  .00298927  47930-4  61935-3 0  9995
2 44330  51.6229 145.1543 0005065 228.1269 131.9308 15.98628697129345
NEPALISAT-1             
1 44331U 98067QG  21263.96561698  .00311862  52595-4  56563-3 0  9998
2 44331  51.6244 146.0116 0005473 227.7037 132.3510 16.00943457129304
SPOOQY-1                
1 44332U 98067QH  21263.97757013  .00203662  27421-4  50097-3 0  9992
2 44332  51.6272 148.4364 0002910 209.9849 150.0992 15.95636464129236
SPACEBEE-9              
1 44370U 19037F   21264.50645994  .00056107  00000-0  55079-3 0  9993
2 44370  44.9964  27.3801 0006423 345.7279  14.3436 15.65270791126192
MOVE-IIB                
1 44398U 19038N   21264.54922912  .00003013  00000-0  16815-3 0  9999
2 44398  97.5926 228.1984 0023707 342.7590  17.2830 15.14106595122307
SONATE                  
1 44400U 19038Q   21264.63141152  .00001224  00000-0  73202-4 0  9998
2 44400  97.5991 228.0683 0024195 342.7464  17.2961 15.12740546122279
LUCKY-7                 
1 44406U 19038W   21264.34388351  .00001369  00000-0  80484-4 0  9996
2 44406  97.6001 228.0788 0023612 342.8108  17.2320 15.13183953122243
BEESAT 9                
1 44412U 19038AC  21264.14161427  .00001789  00000-0  10295-3 0  9992
2 44412  97.5982 227.9334 0021738 349.1580  10.9179 15.13593093121929
JAISAT-1                
1 44419U 19038F   21264.14683118  .00001801  00000-0  10228-3 0  9996
2 44419  97.5986 228.5618 0020555 347.2681  12.8029 15.14078910122270
KRAKSAT                 
1 44427U 98067QM  21264.30934118  .00045150  00000-0  32130-3 0  9992
2 44427  51.6350 171.1409 0002822 188.6826 270.3145 15.73381916126532
VCC A                   
1 44428U 98067QN  21264.41362954  .00172710  22161-4  53429-3 0  9991
2 44428  51.6298 151.5501 0003851 204.9012 155.1809 15.91354623126803
VCC B                   
1 44431U 98067QR  21263.97891515  .00184439  24179-4  49748-3 0  9996
2 44431  51.6249 152.2348 0004410 201.5524 158.5298 15.93943050126699
DUCHIFAT-3              
1 44854U 19089C   21264.34428146  .00000679  00000-0  60415-4 0  9991
2 44854  36.9668 253.5047 0008135 202.9648 157.0735 14.99630741 97502
EYESAT-NANO             
1 44877U 19092E   21264.25199482  .00002296  00000-0  11478-3 0  9999
2 44877  97.4626  86.5659 0012109 210.4156 149.6377 15.18399461 97478
ORBITAL FACTORY 2 (OF-2)
1 45113U 19071C   21264.29764043  .00004207  00000-0  12654-3 0  9996
2 45113  51.6412 292.5440 0011022 282.6598  77.3152 15.36575318 91905
M2 PATHFINDER           
1 45727U 20037E   21264.22508299  .00000080  00000-0  13540-4 0  9994
2 45727  97.7199  80.0010 0012068 204.9870 155.0789 14.91443739 66692
NETSAT-4                
1 46504U 20068U   21264.55496947  .00000562  00000-0  47184-4 0  9990
2 46504  97.6969 200.6354 0014396 147.6733 212.5397 15.02234723 53669
NETSAT-3                
1 46505U 20068V   21264.56417513  .00000975  00000-0  78570-4 0  9995
2 46505  97.6939 200.5946 0012520 161.9406 198.2271 15.02202265 53674
NETSAT-1                
1 46506U 20068W   21264.63958190  .00001505  00000-0  11893-3 0  9999
2 46506  97.6904 200.6298 0009740 176.4270 183.7022 15.02157260 53686
NETSAT-2                
1 46507U 20068X   21264.57815684  .00001422  00000-0  11278-3 0  9998
2 46507  97.6892 200.5661 0007865 183.7641 176.3561 15.02119824 53629
SPOC                    
1 46921U 98067RR  21264.38598131  .00012093  00000-0  17399-3 0  9992
2 46921  51.6409 216.9479 0003043  83.0303 277.1035 15.56496828 49792
BOBCAT-1                
1 46922U 98067RS  21264.58589340  .00019702  00000-0  25076-3 0  9992
2 46922  51.6413 213.0628 0003057  91.7033 268.4310 15.59349343 49828
NEUTRON-1               
1 46923U 98067RT  21264.47361966  .00012208  00000-0  17640-3 0  9995
2 46923  51.6409 216.7801 0003018  93.0647 267.0690 15.56367711 49833
1998-067RU              
1 46924U 98067RU  21264.55415077  .00045983  00000-0  43175-3 0  9996
2 46924  51.6367 206.7798 0003738 117.8683 242.2692 15.66682382 49949
DESCENT                 
1 46927U 98067RX  21264.28622007  .00013002  00000-0  18732-3 0  9990
2 46927  51.6404 217.7743 0003093 105.6509 254.4824 15.56382040 49716
SAI-1 NANOCONNECT-2     
1 47701U 21015C   21264.15257110 -.00000072  00000-0  00000-0 0  9995
2 47701  97.4587 338.0256 0011474 328.8140  31.2537 15.23064767 31186
WARP-01                 
1 47924U 98067SA  21264.18293596  .00016146  00000-0  24711-3 0  9990
2 47924  51.6402 223.8113 0005834  98.8111 261.3541 15.54509127 29679
RSP-01                  
1 47925U 98067SB  21264.40152071  .00012562  00000-0  19902-3 0  9992
2 47925  51.6413 223.0329 0002876  54.8871 305.2388 15.53800671 29686
TAUSAT-1                
1 47926U 98067SC  21264.58287295  .00015735  00000-0  23821-3 0  9999
2 47926  51.6399 221.2379 0003869  50.5048 309.6285 15.54840028 29716
TSURU                   
1 47927U 98067SD  21264.16470686  .00012099  00000-0  19457-3 0  9992
2 47927  51.6411 224.4510 0002843  51.4230 308.7014 15.53424952 29643
STARS-EC                
1 47928U 98067SE  21264.38422629  .00017041  00000-0  26032-3 0  9990
2 47928  51.6408 222.9081 0006442 102.8931 257.2780 15.54512038 29668
MAYA-2                  
1 47929U 98067SF  21264.16103758  .00011892  00000-0  19120-3 0  9994
2 47929  51.6415 224.4257 0002887  48.5500 311.5738 15.53449670 29607
HIROGARI (OPUSAT-II)    
1 47930U 98067SG  21264.46892440  .00018770  00000-0  28014-3 0  9996
2 47930  51.6410 221.9856 0002899  52.7797 307.3458 15.55089550 29701
GUARANISAT-1            
1 47931U 98067SH  21264.15926233  .00011942  00000-0  19184-3 0  9993
2 47931  51.6415 224.4166 0002913  47.8390 312.2847 15.53468982 29648
SMOG-1                  
1 47964U 21022AJ  21264.23423834  .00001111  00000-0  77444-4 0  9995
2 47964  97.5471 164.7890 0019422 343.2228  16.8355 15.07321116 26308
MMSATS-1                
1 47976U 98067SJ  21264.62109341  .00004399  00000-0  83068-4 0  9998
2 47976  51.6474 224.4647 0003418  87.9133 272.2232 15.50677489 28460
BCCSAT-1                
1 48041U 21022AK  21264.29927357  .00000939  00000-0  67148-4 0  9994
2 48041  97.5478 164.7265 0015636 341.2909  18.7742 15.06753731 26284
RAMSAT                  
1 48850U 98067SL  21264.38956831  .00008194  00000-0  14579-3 0  9994
2 48850  51.6413 225.9240 0004859 125.8836 234.2605 15.51079326 15399
